0 DELTA 1 DEB
1 10720U 76077AR  13283.00182731 -.00000266  00000-0 -21524-2 0   326
2 10720 101.9784 290.2383 0359985 331.4108 083.5988 12.05270170637875
0 DELTA 1 DEB
1 10720U 76077AR  13285.51534856 -.00000081  00000-0 -38226-3 0   337
2 10720 101.9779 292.5586 0359952 327.0208 189.6995 12.05267558638171
0 DELTA 1 DEB
1 10720U 76077AR  13287.58178255  .00000094  00000-0  13005-2 0   343
2 10720 101.9776 294.4663 0359945 323.4177 155.8822 12.05266070638422
0 DELTA 1 DEB
1 10720U 76077AR  13289.97371889  .00000280  00000-0  30826-2 0   354
2 10720 101.9779 296.6739 0359941 319.2381 094.4074 12.05265897638714
0 DELTA 1 DEB
1 10720U 76077AR  13292.56119814  .00000346  00000-0  37126-2 0   365
2 10720 101.9786 299.0618 0359931 314.7078 161.3925 12.05267536639023
0 DELTA 1 DEB
1 10720U 76077AR  13295.95286749  .00000141  00000-0  17521-2 0   374
2 10720 101.9791 302.1920 0359911 308.7729 117.7385 12.05270810639434
